{
  "type": "FeatureCollection",
  "features": [
    {
      "type": "Feature",
      "properties": {
        "norad_id": 35052,
        "name": "IRIDIUM 33 DEB",
        "group": "iridium-33-debris",
        "lat": 70.38465380589753,
        "lon": 35.2019393045779,
        "alt_km": 749.6831430965603,
        "timestamp": "2025-12-02T13:52:17.646387+00:00",
        "meta_object_name": "IRIDIUM 33 DEB",
        "meta_object_id": "1997-051NY",
        "meta_epoch": "2025-12-01T20:50:57.172128",
        "meta_mean_motion": 14.38471357,
        "meta_eccentricity": 0.00135109,
        "meta_inclination": 86.332,
        "meta_ra_of_asc_node": 25.1363,
        "meta_arg_of_pericenter": 115.3752,
        "meta_mean_anomaly": 244.8847,
        "meta_ephemeris_type": 0,
        "meta_classification_type": "U",
        "meta_norad_cat_id": 35052,
        "meta_element_set_no": 999,
        "meta_rev_at_epoch": 87119,
        "meta_bstar": 0.00022805798,
        "meta_mean_motion_dot": 7.16e-06,
        "meta_mean_motion_ddot": 0,
        "tle_line1": "1 35052U 97051NY  25335.86871727  .00000716  00000+0  22806-3 0  9995",
        "tle_line2": "2 35052  86.3320  25.1363 0013510 115.3752 244.8847 14.38471357871199"
      },
      "geometry": {
        "type": "Point",
        "coordinates": [
          35.2019393045779,
          70.38465380589753
        ]
      }
    },
    {
      "type": "Feature",
      "properties": {
        "norad_id": 35080,
        "name": "IRIDIUM 33 DEB",
        "group": "iridium-33-debris",
        "lat": -14.506725024369771,
        "lon": 56.24053514378215,
        "alt_km": 651.5593760208403,
        "timestamp": "2025-12-02T13:52:17.646397+00:00",
        "meta_object_name": "IRIDIUM 33 DEB",
        "meta_object_id": "1997-051PF",
        "meta_epoch": "2025-12-01T23:22:16.261248",
        "meta_mean_motion": 14.83809313,
        "meta_eccentricity": 0.00642465,
        "meta_inclination": 86.2057,
        "meta_ra_of_asc_node": 57.5123,
        "meta_arg_of_pericenter": 215.9752,
        "meta_mean_anomaly": 143.7139,
        "meta_ephemeris_type": 0,
        "meta_classification_type": "U",
        "meta_norad_cat_id": 35080,
        "meta_element_set_no": 999,
        "meta_rev_at_epoch": 69528,
        "meta_bstar": 0.0089496131,
        "meta_mean_motion_dot": 0.00077648,
        "meta_mean_motion_ddot": 0,
        "tle_line1": "1 35080U 97051PF  25335.97379932  .00077648  00000+0  89496-2 0  9994",
        "tle_line2": "2 35080  86.2057  57.5123 0064246 215.9752 143.7139 14.83809313695280"
      },
      "geometry": {
        "type": "Point",
        "coordinates": [
          56.24053514378215,
          -14.506725024369771
        ]
      }
    },
    {
      "type": "Feature",
      "properties": {
        "norad_id": 35297,
        "name": "IRIDIUM 33 DEB",
        "group": "iridium-33-debris",
        "lat": 83.69107077925007,
        "lon": -147.77095483953886,
        "alt_km": 731.6818368183676,
        "timestamp": "2025-12-02T13:52:17.646407+00:00",
        "meta_object_name": "IRIDIUM 33 DEB",
        "meta_object_id": "1997-051PM",
        "meta_epoch": "2025-11-28T13:02:32.385696",
        "meta_mean_motion": 14.4505178,
        "meta_eccentricity": 0.00162447,
        "meta_inclination": 86.3859,
        "meta_ra_of_asc_node": 68.817,
        "meta_arg_of_pericenter": 185.2069,
        "meta_mean_anomaly": 174.8967,
        "meta_ephemeris_type": 0,
        "meta_classification_type": "U",
        "meta_norad_cat_id": 35297,
        "meta_element_set_no": 999,
        "meta_rev_at_epoch": 70221,
        "meta_bstar": 0.00072341306,
        "meta_mean_motion_dot": 2.549e-05,
        "meta_mean_motion_ddot": 0,
        "tle_line1": "1 35297U 97051PM  25332.54343039  .00002549  00000+0  72341-3 0  9993",
        "tle_line2": "2 35297  86.3859  68.8170 0016244 185.2069 174.8967 14.45051780702214"
      },
      "geometry": {
        "type": "Point",
        "coordinates": [
          -147.77095483953886,
          83.69107077925007
        ]
      }
    },
    {
      "type": "Feature",
      "properties": {
        "norad_id": 35299,
        "name": "IRIDIUM 33 DEB",
        "group": "iridium-33-debris",
        "lat": -5.834675191658111,
        "lon": -142.0108535479823,
        "alt_km": 733.2865993461292,
        "timestamp": "2025-12-02T13:52:17.646418+00:00",
        "meta_object_name": "IRIDIUM 33 DEB",
        "meta_object_id": "1997-051PP",
        "meta_epoch": "2025-12-01T22:35:01.204224",
        "meta_mean_motion": 14.40770898,
        "meta_eccentricity": 0.00585899,
        "meta_inclination": 86.2895,
        "meta_ra_of_asc_node": 37.8863,
        "meta_arg_of_pericenter": 136.7953,
        "meta_mean_anomaly": 346.55,
        "meta_ephemeris_type": 0,
        "meta_classification_type": "U",
        "meta_norad_cat_id": 35299,
        "meta_element_set_no": 999,
        "meta_rev_at_epoch": 86175,
        "meta_bstar": 0.00094918557,
        "meta_mean_motion_dot": 3.118e-05,
        "meta_mean_motion_ddot": 0,
        "tle_line1": "1 35299U 97051PP  25335.94098616  .00003118  00000+0  94919-3 0  9998",
        "tle_line2": "2 35299  86.2895  37.8863 0058589 136.7953 346.5500 14.40770898861750"
      },
      "geometry": {
        "type": "Point",
        "coordinates": [
          -142.0108535479823,
          -5.834675191658111
        ]
      }
    },
    {
      "type": "Feature",
      "properties": {
        "norad_id": 35480,
        "name": "IRIDIUM 33 DEB",
        "group": "iridium-33-debris",
        "lat": -40.043362600326965,
        "lon": 26.24809804729022,
        "alt_km": 744.2655944614353,
        "timestamp": "2025-12-02T13:52:17.646427+00:00",
        "meta_object_name": "IRIDIUM 33 DEB",
        "meta_object_id": "1997-051QA",
        "meta_epoch": "2025-12-01T21:29:27.496896",
        "meta_mean_motion": 14.49686619,
        "meta_eccentricity": 0.00155495,
        "meta_inclination": 86.3575,
        "meta_ra_of_asc_node": 29.6125,
        "meta_arg_of_pericenter": 136.7189,
        "meta_mean_anomaly": 223.524,
        "meta_ephemeris_type": 0,
        "meta_classification_type": "U",
        "meta_norad_cat_id": 35480,
        "meta_element_set_no": 999,
        "meta_rev_at_epoch": 86874,
        "meta_bstar": 0.000651702,
        "meta_mean_motion_dot": 2.53e-05,
        "meta_mean_motion_ddot": 0,
        "tle_line1": "1 35480U 97051QA  25335.89545714  .00002530  00000+0  65170-3 0  9994",
        "tle_line2": "2 35480  86.3575  29.6125 0015549 136.7189 223.5240 14.49686619868745"
      },
      "geometry": {
        "type": "Point",
        "coordinates": [
          26.24809804729022,
          -40.043362600326965
        ]
      }
    },
    {
      "type": "Feature",
      "properties": {
        "norad_id": 35484,
        "name": "IRIDIUM 33 DEB",
        "group": "iridium-33-debris",
        "lat": 23.803839989455177,
        "lon": 175.88885799277566,
        "alt_km": 558.6785147455075,
        "timestamp": "2025-12-02T13:52:17.646438+00:00",
        "meta_object_name": "IRIDIUM 33 DEB",
        "meta_object_id": "1997-051QE",
        "meta_epoch": "2025-12-01T19:32:14.692416",
        "meta_mean_motion": 14.97587734,
        "meta_eccentricity": 0.00218288,
        "meta_inclination": 86.3628,
        "meta_ra_of_asc_node": 357.8533,
        "meta_arg_of_pericenter": 162.6444,
        "meta_mean_anomaly": 197.5538,
        "meta_ephemeris_type": 0,
        "meta_classification_type": "U",
        "meta_norad_cat_id": 35484,
        "meta_element_set_no": 999,
        "meta_rev_at_epoch": 61852,
        "meta_bstar": 0.0025030806,
        "meta_mean_motion_dot": 0.00029486,
        "meta_mean_motion_ddot": 0,
        "tle_line1": "1 35484U 97051QE  25335.81405894  .00029486  00000+0  25031-2 0  9994",
        "tle_line2": "2 35484  86.3628 357.8533 0021828 162.6444 197.5538 14.97587734618526"
      },
      "geometry": {
        "type": "Point",
        "coordinates": [
          175.88885799277566,
          23.803839989455177
        ]
      }
    },
    {
      "type": "Feature",
      "properties": {
        "norad_id": 35488,
        "name": "IRIDIUM 33 DEB",
        "group": "iridium-33-debris",
        "lat": 75.13657079806892,
        "lon": 111.54034648218665,
        "alt_km": 595.129177061277,
        "timestamp": "2025-12-02T13:52:17.646461+00:00",
        "meta_object_name": "IRIDIUM 33 DEB",
        "meta_object_id": "1997-051QJ",
        "meta_epoch": "2025-12-01T08:14:53.482848",
        "meta_mean_motion": 14.82615627,
        "meta_eccentricity": 0.00309682,
        "meta_inclination": 86.3231,
        "meta_ra_of_asc_node": 306.1315,
        "meta_arg_of_pericenter": 78.8041,
        "meta_mean_anomaly": 281.666,
        "meta_ephemeris_type": 0,
        "meta_classification_type": "U",
        "meta_norad_cat_id": 35488,
        "meta_element_set_no": 999,
        "meta_rev_at_epoch": 88097,
        "meta_bstar": 0.0016299271,
        "meta_mean_motion_dot": 0.00013268,
        "meta_mean_motion_ddot": 0,
        "tle_line1": "1 35488U 97051QJ  25335.34367457  .00013268  00000+0  16299-2 0  9995",
        "tle_line2": "2 35488  86.3231 306.1315 0030968  78.8041 281.6660 14.82615627880979"
      },
      "geometry": {
        "type": "Point",
        "coordinates": [
          111.54034648218665,
          75.13657079806892
        ]
      }
    }
  ]
}